ONEWEB-0158             
1 48054U 21025N   26204.31267301  .00000052  00000+0  10783-3 0  9996
2 48054  87.8989 313.0319 0001912 108.4606 251.6731 13.13471432258379
ONEWEB-0157             
1 48055U 21025P   26204.03334016 -.00000205  00000+0 -59650-3 0  9992
2 48055  87.8984 313.0922 0002282  93.5094 266.6296 13.13471901258273
ONEWEB-0162             
1 48056U 21025Q   26204.23805976 -.00000065  00000+0 -21403-3 0  9992
2 48056  87.8983 313.0511 0001856  94.3130 265.8211 13.13469382258271
ONEWEB-0155             
1 48057U 21025R   26203.71170058 -.00000243  00000+0 -69927-3 0  9992
2 48057  87.8988 313.1529 0001979  96.9707 263.1647 13.13468154258349
ONEWEB-0149             
1 48058U 21025S   26204.26696811 -.00000092  00000+0 -28584-3 0  9990
2 48058  87.8988 313.0469 0001816  94.4754 265.6583 13.13471066258226
ONEWEB-0148             
1 48059U 21025T   26204.07737333  .00000099  00000+0  23682-3 0  9994
2 48059  87.8982 313.0894 0001741  82.6427 277.4900 13.13468795258326
ONEWEB-0160             
1 48060U 21025U   26204.24664707 -.00000208  00000+0 -60369-3 0  9996
2 48060  87.8981 313.0514 0001667 121.2522 238.8770 13.13469726258296
ONEWEB-0163             
1 48061U 21025V   26204.30759921  .00000196  00000+0  50126-3 0  9991
2 48061  87.8990 313.0368 0002198  94.8629 265.2751 13.13469262258420
ONEWEB-0159             
1 48062U 21025W   26204.29913359  .00000272  00000+0  71016-3 0  9993
2 48062  87.8990 313.0325 0002164  96.3198 263.8178 13.13469818258340
ONEWEB-0164             
1 48063U 21025X   26204.28051029  .00000230  00000+0  59589-3 0  9995
2 48063  87.8988 313.0425 0001941 102.0564 258.0783 13.13470779258327
ONEWEB-0167             
1 48064U 21025Y   26204.30844896  .00000136  00000+0  33678-3 0  9997
2 48064  87.8982 313.0434 0002633 102.6459 257.4965 13.13470121258315
ONEWEB-0166             
1 48065U 21025Z   26204.33129298 -.00000278  00000+0 -79670-3 0  9994
2 48065  87.8990 313.0136 0001944  98.2534 261.8816 13.13470747258398
ONEWEB-0151             
1 48066U 21025AA  26204.25679975 -.00000266  00000+0 -76451-3 0  9999
2 48066  87.8989 313.0432 0002087 101.6486 258.4877 13.13470593258321
ONEWEB-0170             
1 48067U 21025AB  26204.26526874 -.00000141  00000+0 -42009-3 0  9994
2 48067  87.8992 313.0433 0002072 115.5119 244.6225 13.13469978258282
ONEWEB-0168             
1 48068U 21025AC  26204.02150299 -.00000277  00000+0 -79287-3 0  9991
2 48068  87.8989 313.0936 0002036 100.3310 259.8049 13.13469414258267
ONEWEB-0173             
1 48069U 21025AD  26204.01304062 -.00000197  00000+0 -57556-3 0  9996
2 48069  87.8982 313.0941 0002314  95.2079 264.9314 13.13469554258504
ONEWEB-0171             
1 48070U 21025AE  26204.27881660  .00000243  00000+0  63116-3 0  9999
2 48070  87.8979 313.0487 0002012 102.1667 257.9687 13.13470689258352
ONEWEB-0172             
1 48071U 21025AF  26204.25848774 -.00000256  00000+0 -73469-3 0  9995
2 48071  87.8990 313.0457 0002130 100.4414 259.6956 13.13471483259245
ONEWEB-0174             
1 48072U 21025AG  26204.23988481 -.00000024  00000+0 -99709-4 0  9993
2 48072  87.8991 313.0482 0001920  95.4535 264.6813 13.13469548258569
ONEWEB-0175             
1 48073U 21025AH  26204.27035065 -.00000058  00000+0 -19427-3 0  9994
2 48073  87.8989 313.0274 0002219 107.1648 252.9724 13.13470581258227
ONEWEB-0177             
1 48074U 21025AJ  26204.28220166  .00000256  00000+0  66545-3 0  9995
2 48074  87.8989 313.0426 0002004  92.9800 267.1559 13.13470466258417
ONEWEB-0178             
1 48075U 21025AK  26204.22478237  .00000256  00000+0  66688-3 0  9992
2 48075  87.8978 313.0628 0002215 100.0180 260.1199 13.13470673258453
ONEWEB-0108             
1 48076U 21025AL  26203.72695071 -.00000193  00000+0 -56260-3 0  9991
2 48076  87.8991 313.1454 0001738  99.6099 260.5226 13.13469837258318
ONEWEB-0169             
1 48077U 21025AM  26203.75912131  .00000283  00000+0  74047-3 0  9995
2 48077  87.8987 313.1446 0001930  95.4625 264.6724 13.13469261256977
ONEWEB-0176             
1 48210U 21031A   26204.18270519 -.00000136  00000+0 -40254-3 0  9998
2 48210  87.8963 282.5284 0002211 100.8504 259.2875 13.14503379253041
ONEWEB-0184             
1 48211U 21031B   26204.15574833 -.00000073  00000+0 -23033-3 0  9998
2 48211  87.8970 282.5361 0002798 108.1567 251.9867 13.14502786253014
ONEWEB-0179             
1 48212U 21031C   26204.17506501  .00000306  00000+0  92313-4 0  9993
2 48212  87.8984 278.3126 0222806 139.5719 222.2275 14.25577867254170
ONEWEB-0180             
1 48213U 21031D   26204.15891895 -.00000180  00000+0 -52050-3 0  9990
2 48213  87.8967 282.5321 0002432  93.1942 266.9466 13.14502976252946
ONEWEB-0218             
1 48214U 21031E   26204.18111065 -.00000254  00000+0 -72035-3 0  9995
2 48214  87.8971 282.5276 0002913 103.3055 256.8400 13.14504111253102
ONEWEB-0209             
1 48215U 21031F   26204.17001644 -.00000161  00000+0 -46903-3 0  9998
2 48215  87.8960 282.5428 0002179  93.2847 266.8532 13.14503999253100
